{"type": "FeatureCollection", "features": [ {"type": "Feature", "properties": {"norad_id": 46979, "name": "IRIDIUM 33 DEB", "group": "iridium-33-debris", "lat": 26.46801615027991, "lon": -129.10212362376643, "alt_km": 606.1509691593074, "timestamp": "2025-12-03T17:47:51.103908+00:00", "meta": {"OBJECT_NAME": "IRIDIUM 33 DEB", "OBJECT_ID": "1997-051ACM", "EPOCH": "2025-12-01T11:51:13.074912", "MEAN_MOTION": 14.88074464, "ECCENTRICITY": 0.00285955, "INCLINATION": 86.3339, "RA_OF_ASC_NODE": 53.769, "ARG_OF_PERICENTER": 262.5043, "MEAN_ANOMALY": 97.2933, "EPHEMERIS_TYPE": 0, "CLASSIFICATION_TYPE": "U", "NORAD_CAT_ID": 46979, "ELEMENT_SET_NO": 999, "REV_AT_EPOCH": 35261, "BSTAR": 0.0059304432, "MEAN_MOTION_DOT": 0.00055309, "MEAN_MOTION_DDOT": 0}, "tle": {"line1": "1 46979U 97051ACM 25335.49390133  .00055309  00000+0  59304-2 0  9991", "line2": "2 46979  86.3339  53.7690 0028595 262.5043  97.2933 14.88074464352616"}}, "geometry": {"type": "Point", "coordinates": [-129.10212362376643, 26.46801615027991]}}]}